C/2019 M3 (ATLAS),e,99.6607,155.0605,87.9357,5088,0.0000027,0.99952352,0.0000,12/31.4854/2018,2000,g 12.2,4.0
# From MPEC 2023-JA2
C/2019 M4 (TESS),h,09/09.3564/2019,65.6936,52.6410,260.3371,1.000184,9.191024,2000,5.0,4.0
# From MPEC 2023-C45
C/2019 N1 (ATLAS),e,82.5424,13.5069,193.3416,957.1091,0.0000333,0.99822072,0.0000,11/30.4793/2020,2000,g  7.5,4.0
# From MPEC 2023-CD8
A/2019 N2,e,89.3188,276.2269,347.0570,1108,0.0000267,0.99825029,0.0000,08/22.4064/2019,2000,g 12.5,2.0
# From MPEC 2022-A21
C/2019 NJ3 (Lemmon),h,10/22.1595/2020,99.3296,142.4928,246.8691,1.001364,4.362915,2000,9.0,4.0
# From MPC185656
C/2019 O2 (PANSTARRS),e,93.2974,48.2635,129.5720,58.77758,0.0021872,0.83529892,1.8984,08/21.0/2025,2000,g  5.0,4.0
# From MPC182878
C/2019 O3 (Palomar),h,03/08.2512/2021,89.7944,300.4787,60.0961,1.002539,8.820647,2000,3.5,4.0
# From MPEC 2021-P47
A/2019 O4,e,114.9968,354.9256,61.8182,33.22143,0.0051473,0.89037553,10.3865,08/21.0/2025,2000,g 15.5,2.0
# From MPEC 2024-EF7
C/2019 Q1 (Lemmon),h,07/22.2806/2020,155.7196,42.4685,56.2539,1.002450,5.002263,2000,8.5,4.0
# From MPC117072
A/2019 Q2,e,158.9662,188.1344,176.5138,58.81851,0.0021849,0.97857231,0.0000,07/23.7980/2019,2000,g 18.0,2.0
# From MPC117072
P/2019 S2 (PANSTARRS),e,10.4636,93.1797,216.9155,4.747595,0.0952782,0.20466943,226.5895,08/21.0/2025,2000,g 13.5,4.0
# From MPEC 2022-CN4
P/2019 S3 (PANSTARRS),e,8.6942,150.1401,213.0992,3.414198,0.1562323,0.47071805,341.2248,08/21.0/2025,2000,g 18.3,4.0
# From MPEC 2021-S45
C/2019 S4 (Lemmon),e,92.0928,63.1551,71.3697,249.6890,0.0002498,0.98622783,0.0000,04/09.4975/2020,2000,g 11.0,4.0
# From MPEC 2023-N01
A/2019 T1,e,120.8158,6.9277,90.9743,38.74054,0.0040875,0.88966922,6.8632,08/21.0/2025,2000,g 13.0,2.0
# From MPEC 2023-R20
C/2019 T2 (Lemmon),e,111.3644,155.6539,239.3823,3272,0.0000053,0.99919213,0.0000,04/22.4789/2021,2000,g  9.0,4.0
# From MPEC 2023-UR6
C/2019 T3 (ATLAS),e,121.8780,139.5452,112.4912,4841,0.0000029,0.99877027,0.0000,03/04.7863/2021,2000,g  6.8,4.0
# From MPC182878
C/2019 T4 (ATLAS),e,53.6245,199.8972,351.1074,880.1824,0.0000377,0.99518599,0.0000,06/08.6703/2022,2000,g  5.0,4.0
# From MPEC 2021-P47
P/2019 T5 (ATLAS),e,33.4915,247.6131,189.6283,8.008308,0.0434904,0.80976335,96.0907,08/21.0/2025,2000,g 15.0,4.0
# From MPEC 2021-P47
P/2019 T6 (PANSTARRS),e,18.6982,71.2486,329.0617,5.443127,0.0776125,0.62239138,163.9289,08/21.0/2025,2000,g 15.5,4.0
# From MPC118096
P/2019 U4 (PANSTARRS),e,11.6954,199.9997,181.0876,3.518624,0.1493292,0.47572211,322.5878,08/21.0/2025,2000,g 19.0,4.0
# From MPC185656
C/2019 U5 (PANSTARRS),h,03/29.4053/2023,113.5128,2.6096,181.4470,1.000106,3.624305,2000,4.5,4.0
# From MPEC 2022-H04
C/2019 U6 (Lemmon),e,60.9903,235.7429,329.4244,302.5493,0.0001873,0.99700546,0.0000,06/18.3343/2020,2000,g 10.0,4.0
# From MPEC 2022-N37
C/2019 V1 (Borisov),e,61.9484,83.1481,51.1960,2763,0.0000068,0.99888065,0.0000,07/17.6686/2020,2000,g 11.0,4.0
# From MPEC 2022-L66
P/2019 V2 (Groeller),e,11.8070,189.1334,335.6338,7.494708,0.0480366,0.33193850,84.9599,08/21.0/2025,2000,g 10.0,4.0
# From MPEC 2023-A50
P/2019 W1 (PANSTARRS),e,23.4659,35.3593,18.9003,4.548447,0.1016037,0.26718109,232.9548,08/21.0/2025,2000,g 12.9,4.0
# From MPEC 2021-P47
P/2019 X1 (Pruyne),e,10.2451,43.6761,37.0032,6.179780,0.0641571,0.30380448,142.3749,08/21.0/2025,2000,g 10.4,4.0
# From MPEC 2020-C98
P/2019 X2 (Pan-STARRS),e,15.8946,250.8296,213.5235,3.633888,0.1422810,0.50049436,295.7902,08/21.0/2025,2000,g 18.0,4.0
# From MPC119999
C/2019 Y1 (ATLAS),e,73.2665,31.4686,57.9172,88.26193,0.0011886,0.99063830,0.0000,03/17.2685/2020,2000,g 13.7,4.0
# From MPEC 2024-A43
C/2019 Y4 (ATLAS),e,44.9200,120.7976,177.4060,328.1698,0.0001658,0.99921593,0.0000,05/29.5408/2020,2000,g 11.8,6.0
# From MPEC 2020-L06
C/2019 Y4-A (ATLAS),h,05/29.5972/2020,45.3541,121.1657,177.2379,1.001359,0.255462,2000,11.6,6.0
# From MPEC 2025-CE3
C/2019 Y4-B (ATLAS),e,45.0012,120.8609,177.3650,1319,0.0000206,0.99980510,0.0000,05/29.5501/2020,2000,g 12.1,6.0
# From MPEC 2020-L06
C/2019 Y4-C (ATLAS),h,05/29.5514/2020,45.1380,120.8931,177.2707,1.002087,0.256533,2000,12.7,6.0
# From MPEC 2020-L06
C/2019 Y4-D (ATLAS),e,45.1915,121.2540,177.4142,67.20861,0.0017888,0.99619305,0.0000,05/29.6314/2020,2000,g 12.5,6.0
# From MPEC 2023-A50
C/2019 Y5 (PANSTARRS),e,82.7764,51.7698,303.6710,684.7872,0.0000550,0.99279366,0.0000,08/16.4687/2019,2000,g 11.0,4.0
# From MPEC 2023-A50
A/2020 A1,e,149.0315,119.0562,302.4007,25.46010,0.0076721,0.93431669,16.0419,08/21.0/2025,2000,g 18.0,2.0
# From MPEC 2022-YN2
C/2020 A2 (Iwamoto),e,120.5004,286.1842,68.0138,948.5566,0.0000337,0.99897158,0.0000,01/06.9801/2020,2000,g 13.5,4.0
# From MPEC 2023-A50
C/2020 A3 (ATLAS),e,146.6187,120.7976,268.2296,4522,0.0000032,0.99872768,0.0000,06/26.6812/2019,2000,g  8.0,4.0
# From MPEC 2022-P91
P/2020 A4 (PANSTARRS-Lemmon),e,25.0039,312.2754,144.9156,8.203519,0.0419473,0.65447119,87.9403,08/21.0/2025,2000,g 15.0,4.0
# From MPEC 2020-N08
A/2020 B1,e,18.5421,309.7938,154.8924,52.13107,0.0026185,0.96663415,5.4028,08/21.0/2025,2000,g 21.0,2.0
# From MPEC 2020-HN5
C/2020 B2 (Lemmon),e,55.7557,354.1675,143.6341,67.92657,0.0017605,0.95942780,3.5785,08/21.0/2025,2000,g 10.0,4.0
# From MPEC 2022-N37
C/2020 B3 (Rankin),e,20.7068,185.7374,324.9381,1065,0.0000284,0.99687559,0.0000,10/20.8955/2019,2000,g 13.0,4.0
# From MPEC 2023-KD6
P/2020 B4 (Sheppard),e,11.6027,185.9456,342.0601,7.973815,0.0437728,0.19295697,59.9911,08/21.0/2025,2000,g 10.5,4.0
# From MPEC 2025-OF9
C/2020 F2 (ATLAS),h,07/12.3807/2022,163.5897,250.3001,48.2328,1.002387,8.813460,2000,4.5,4.0
# From MPEC 2021-O56
C/2020 F3 (NEOWISE),e,129.1062,61.0727,37.3414,404.1801,0.0001213,0.99927435,0.0000,07/05.0232/2020,2000,g  7.5,5.2
# From MPEC 2024-UQ8
C/2020 F5 (MASTER),e,52.2347,350.5466,310.6091,163.7693,0.0004703,0.97358487,0.0000,03/16.1046/2021,2000,g  6.5,3.2
# From MPEC 2020-L06
C/2020 F6 (PANSTARRS),e,174.5844,207.8342,344.3213,339.1029,0.0001578,0.98968461,0.0000,04/10.1996/2020,2000,g 14.5,2.8
# From MPEC 2024-A43
C/2020 F7 (Lemmon),e,93.9853,321.8196,227.9876,573.9458,0.0000717,0.99070433,0.0000,11/13.9106/2021,2000,g  7.0,4.0
# From MPEC 2023-J29
C/2020 F8 (SWAN),h,05/25.7155/2020,110.5572,259.8036,68.1172,1.000060,0.433016,2000,10.0,4.0
# From MPEC 2020-L06
P/2020 G1 (Pimentel),e,18.5065,240.0965,207.6522,3.606365,0.1439129,0.86082208,284.9809,08/21.0/2025,2000,g 17.0,4.0
# From MPEC 2022-YB4
C/2020 H2 (Pruyne),e,124.7748,277.6715,26.5811,176.3628,0.0004208,0.99530277,0.0000,04/26.7792/2020,2000,g 14.0,3.2
# From MPEC 2020-HM1
C/2020 H3 (Wierzchos),p,06/05.7162/2020,62.5292,30.4456,2.300288,270.6227,2000,13.5,4.0
# From MPEC 2020-L06
C/2020 H4 (Leonard),e,84.4948,307.4438,117.5842,47.85342,0.0029774,0.98061003,0.0000,08/29.1786/2020,2000,g 15.0,3.2
# From MPC184409
C/2020 H5 (Robinson),e,70.2260,210.6127,326.2635,6151,0.0000020,0.99848233,0.0000,12/09.9600/2020,2000,g  5.0,4.0
# From MPEC 2024-JU4
C/2020 H6 (ATLAS),e,79.9907,213.6885,20.1872,1923,0.0000117,0.99755805,0.0000,09/29.5168/2021,2000,g  8.0,3.2
# From MPEC 2020-KB7
C/2020 H7 (Lemmon),e,135.9235,323.5194,82.6780,1405,0.0000187,0.99685380,0.0000,06/02.9510/2020,2000,g 11.0,4.0
# From MPEC 2021-N06
C/2020 H8 (PANSTARRS),e,99.7020,68.4372,128.8102,589.0491,0.0000689,0.99208477,0.0000,06/04.8214/2020,2000,g 10.5,4.0
# From MPEC 2022-ED3
A/2020 H9,e,137.8733,213.1117,312.6051,339.5657,0.0001575,0.99245691,0.0000,12/21.7513/2019,2000,g 18.0,2.0
# From MPEC 2023-HN7
C/2020 H11 (PANSTARRS-Lemmon),e,151.3720,303.0576,91.3607,17547,0.0000004,0.99956569,0.0000,09/12.3608/2020,2000,g  8.5,4.0
# From MPEC 2023-KD6
C/2020 J1 (SONEAR),e,142.3076,226.5824,341.5684,7986,0.0000014,0.99958117,0.0000,04/17.9682/2021,2000,g  8.5,3.2
# From MPC184409
C/2020 K1 (PANSTARRS),e,89.6705,94.3672,213.9692,2255,0.0000092,0.99863655,0.0000,05/08.6953/2023,2000,g  5.5,4.0
# From MPEC 2021-N06
C/2020 K2 (PANSTARRS),h,08/04.2415/2020,90.9872,288.4352,67.3062,1.000785,8.880276,2000,10.8,4.0
# From MPEC 2020-KF9
C/2020 K3 (Leonard),p,06/01.0032/2020,129.0152,64.4924,1.583069,28.3546,2000,14.5,4.0
# From MPEC 2020-L06
C/2020 K4 (PANSTARRS),e,125.5849,264.2750,308.7750,23.91942,0.0084252,0.92711939,16.8078,08/21.0/2025,2000,g 16.5,4.0
# From MPEC 2021-R75
C/2020 K5 (PANSTARRS),h,06/04.1375/2021,67.0676,86.1411,249.6434,1.000772,1.541002,2000,11.0,4.0
# From MPEC 2023-N01
C/2020 K6 (Rankin),h,09/14.6199/2021,103.6291,291.6011,44.2724,1.001991,5.865874,2000,8.0,4.0
# From MPEC 2023-A50
C/2020 K7 (PANSTARRS),e,32.0442,286.1344,358.0676,94.44634,0.0010738,0.93236849,2.2839,08/21.0/2025,2000,g  8.0,4.0
# From MPEC 2021-P47
C/2020 K8 (Catalina-ATLAS),h,09/15.7550/2020,31.3747,181.2794,260.1836,1.000326,0.471631,2000,15.0,3.2
# From MPEC 2021-BE3
P/2020 K9 (Lemmon-PANSTARRS),e,23.1892,166.3099,197.0889,4.207551,0.1141984,0.32006937,188.6543,08/21.0/2025,2000,g 12.5,4.0
# From MPEC 2023-C45
P/2020 M1 (PANSTARRS),e,8.5347,142.6172,72.4820,5.311480,0.0805157,0.47360540,166.4892,08/21.0/2025,2000,g 14.5,4.0
# From MPEC 2022-H30
C/2020 M3 (ATLAS),e,23.4697,71.1790,328.6753,27.31171,0.0069053,0.95328981,12.1554,08/21.0/2025,2000,g 14.5,4.0
# From MPEC 2023-N01
A/2020 M4,e,160.1009,348.6129,104.4696,15594,0.0000005,0.99961906,0.0000,11/22.6520/2020,2000,g 14.5,2.0
# From MPEC 2024-NE4
P/2020 MK4 (PANSTARRS),e,6.7812,0.6617,93.7153,6.224743,0.0634632,0.01524611,321.4292,08/21.0/2025,2000,g  8.0,4.0
# From MPEC 2023-FK0
C/2020 M5 (ATLAS),h,08/19.7313/2021,93.1706,352.0128,126.2440,1.000103,2.999879,2000,9.0,4.0
# From MPEC 2022-GA9
C/2020 N1 (PANSTARRS),h,03/13.1981/2021,29.7679,279.8546,186.8417,1.000888,1.317732,2000,12.5,4.0
# From MPEC 2021-P47
C/2020 N2 (ATLAS),e,161.0388,257.1784,331.1913,101.1640,0.0009686,0.98237262,0.0000,08/24.3100/2020,2000,g 16.0,3.2
# From MPEC 2024-JU4
C/2020 O2 (Amaral),e,71.7625,256.7908,10.1646,9616,0.0000010,0.99949500,0.0000,08/27.1926/2021,2000,g  8.0,3.2
# From MPEC 2023-C45
